STARLINK-4706           
1 53779U 22111G   26068.88260838  .00001203  00000+0  93680-4 0  9998
2 53779  53.2176 273.3706 0001320  97.5207 262.5936 15.08838620193727
DISKSAT A               
1 67222U 25305D   26068.54789610  .00013824  00000+0  90452-3 0  9996
2 67222  45.0023 251.6019 0004082 318.1929  41.8634 15.07741062 12266
